IRIDIUM 57              
1 25273U 98019B   24346.62892140  .00000754  00000+0  25501-3 0  9998
2 25273  86.3980 223.7705 0002039  81.8434 278.2994 14.35631173397872
IRIDIUM 63              
1 25286U 98021B   24346.58055609  .00000989  00000+0  33224-3 0  9992
2 25286  86.3998 160.7840 0002061  93.7628 266.3805 14.36240454396919
IRIDIUM 69              
1 25319U 98026A   24346.53911424  .00000946  00000+0  29092-3 0  9996
2 25319  86.3997 174.6385 0000664 335.5042  24.6125 14.40582461396043
IRIDIUM 71              
1 25320U 98026B   24346.57338053  .00000965  00000+0  29540-3 0  9992
2 25320  86.3993 169.3554 0002616  35.1320 325.0052 14.40821809396578
IRIDIUM 73              
1 25344U 98032C   24346.48095005  .00001676  00000+0  41695-3 0  9997
2 25344  86.4415 126.5301 0001360  89.9921 270.1441 14.51228167403333
IRIDIUM 82              
1 25467U 98051A   24346.59451128  .00021013  00000+0  83449-3 0  9998
2 25467  86.3749 201.0252 0104865 284.3389  74.6230 15.20168324395344
